SWISSCUBE               
1 35932U 09051B   26124.17493337  .00000995  00000+0  20656-3 0  9993
2 35932  98.4062  31.2942 0006856   1.6813 358.4410 14.62394901882729
BEESAT-1                
1 35933U 09051C   26124.16167535  .00000830  00000+0  17667-3 0  9997
2 35933  98.3990  31.0076 0005674  18.1265 342.0137 14.61647043882751
ITUPSAT1                
1 35935U 09051E   26124.18263478  .00000764  00000+0  16787-3 0  9992
2 35935  98.4076  30.2670 0008050  24.5193 335.6388 14.60372964882316
XIWANG-1 (HOPE-1)       
1 36122U 09072B   26124.16439685  .00000031  00000+0  19806-3 0  9999
2 36122 100.4001  78.7066 0007380 339.5695  20.5122 13.16437461787217
O/OREOS (USA 219)       
1 37224U 10062C   26123.59136919  .00002156  00000+0  20994-3 0  9994
2 37224  71.9702 181.3401 0013635 159.0528 201.1204 14.93563886109982
JUGNU                   
1 37839U 11058B   26123.63347041  .00000462  00000+0  10160-3 0  9999
2 37839  19.9600 219.1062 0018501 304.9418 188.1216 14.13763515752717
SRMSAT                  
1 37841U 11058D   26123.89204050  .00000422  00000+0  85075-4 0  9996
2 37841  19.9734 327.5811 0011781  76.8420 314.3522 14.11565536751550
STRAND-1                
1 39090U 13009E   26123.42805204  .00000294  00000+0  11340-3 0  9999
2 39090  98.3913 304.7663 0008803  13.1955 346.9460 14.37136555690634
ZACUBE-1 (TSHEPISOSAT)  
1 39417U 13066B   26124.14316745  .00005561  00000+0  43373-3 0  9995
2 39417  97.8130  86.2428 0043172  41.0977 319.3485 15.00838926674124
GOMX-1                  
1 39430U 13066Q   26124.19435943  .00001840  00000+0  28295-3 0  9999
2 39430  97.6507 327.4294 0127911 218.3181 140.8886 14.69290558663459
CUBEBUG-2 (LO-74)       
1 39440U 13066AA  26124.11479588  .00003022  00000+0  28390-3 0  9995
2 39440  97.8882  72.9277 0058093 172.0826 188.1324 14.93442830670412
FUNCUBE-1 (AO-73)       
1 39444U 13066AE  26124.16453503  .00008303  00000+0  52258-3 0  9990
2 39444  97.8259  94.7190 0036435 357.0543   3.0465 15.08904484673023
UWE-3                   
1 39446U 13066AG  26123.82793401  .00005346  00000+0  46152-3 0  9998
2 39446  97.8683  79.6263 0051313 106.9054 253.7802 14.96661498670947
UNISAT-6                
1 40012U 14033C   26124.15775219  .00003298  00000+0  35898-3 0  9997
2 40012  97.7827 277.6663 0044594 212.0549 147.7954 14.87986740639611
DUCHIFAT-1              
1 40021U 14033M   26124.09577514  .00074568  00000+0  10193-2 0  9996
2 40021  98.0515 177.3522 0005133 210.7680 149.3273 15.57185713648875
QB50P1                  
1 40025U 14033R   26123.91652668  .00009212  00000+0  46170-3 0  9993
2 40025  98.0978 131.9813 0009332  28.7684 331.4061 15.17571911646318
LILACSAT-2              
1 40908U 15049K   26124.19840920  .00017873  00000+0  31987-3 0  9994
2 40908  97.4704 159.4043 0008422  63.8296 296.3820 15.50007360588930
FOX-1A (AO-85)          
1 40967U 15058D   26124.14643648  .00003515  00000+0  32017-3 0  9995
2 40967  64.7767  55.8190 0128705  73.8514 287.6720 14.90704882107007
CAS-2T & KS-1Q          
1 41847U 16066G   26124.11907089  .00000697  00000+0  10822-3 0  9990
2 41847  98.3828 200.3530 0340898 263.2564  92.9731 14.44578754498435
RADFXSAT (FOX-1B)       
1 43017U 17073E   26124.07543898  .00008974  00000+0  39487-3 0  9993
2 43017  97.4759 352.2102 0154265 120.5821 241.0731 15.11915149458726
DIWATA-2B               
1 43678U 18084H   26124.15266105  .00002457  00000+0  20134-3 0  9990
2 43678  98.1072 318.4812 0012657 322.9023  37.1323 15.00233724409612
ES'HAIL 2               
1 43700U 18090A   26124.12837883  .00000152  00000+0  00000+0 0  9993
2 43700   0.0166 277.7346 0001582 150.4986 225.8197  1.00270873 27230
FOX-1CLIFF (AO-95)      
1 43770U 18099N   26124.14983439  .00010757  00000+0  42341-3 0  9990
2 43770  97.4410 184.5848 0010187 137.5152 222.6876 15.25761782406509
ITASAT                  
1 43786U 18099AE  26124.14198156  .00007399  00000+0  36111-3 0  9997
2 43786  97.4059 176.5436 0013924 141.3297 218.8937 15.18490606406224
JY1SAT (JO-97)          
1 43803U 18099AX  26124.16417720  .00016335  00000+0  52586-3 0  9994
2 43803  97.4157 186.8881 0007052  76.5568 283.6459 15.32270883406886
UWE-4                   
1 43880U 18111E   26123.71154354  .00033666  00000+0  75050-3 0  9992
2 43880  97.5865  50.1529 0010561 117.4778 242.7545 15.43459915403917
TIANYAN 01              
1 44881U 19093C   26124.15573644  .00001169  00000+0  13824-3 0  9994
2 44881  97.7542 197.4598 0012389 228.0753 131.9408 14.86447860344874
RS-44 & BREEZE-KM R/B   
1 44909U 19096E   26124.14537301  .00000025  00000+0  61451-4 0  9997
2 44909  82.5254   8.9736 0216455 247.2781 110.5313 12.79748004296712
SALSAT                  
1 46495U 20068K   26123.91868740  .00008278  00000+0  29493-3 0  9995
2 46495  97.8858 124.3127 0011711  97.6650 262.5919 15.29147420308593
XW-3 (CAS-9)            
1 50466U 21131B   26124.25041626  .00000653  00000+0  21539-3 0  9996
2 50466  98.4961 216.8836 0003299 215.6978 144.3990 14.41315619228787
GREENCUBE (IO-117)      
1 53109U 22080E   26122.89410547 -.00000003  00000+0  00000+0 0  9993
2 53109  70.1448 314.0048 0008850 300.3299  59.6485  6.42583286 89155
UMKA 1 (RS40S)          
1 57172U 23091G   26124.20017906  .00005009  00000+0  23329-3 0  9992
2 57172  97.5077 183.0763 0011210 272.6536  87.3416 15.20321415157324
CUBESX-HSE 3 (RS42S)    
1 57178U 23091N   26124.17661853  .00012622  00000+0  43483-3 0  9992
2 57178  97.5115 189.2410 0009693 242.6616 117.3638 15.30122819157696
MONITOR-3 (RS58S)       
1 57180U 23091Q   26124.17292262  .00009935  00000+0  37739-3 0  9999
2 57180  97.5108 187.3205 0010408 250.9360 109.0752 15.26970976157578
MONITOR-4 (RS57S)       
1 57182U 23091S   26124.15472591  .00009645  00000+0  36542-3 0  9993
2 57182  97.5101 187.2706 0010357 251.3964 108.6150 15.27067796157571
MONITOR-2 (RS39S)       
1 57184U 23091U   26124.16768939  .00004892  00000+0  24023-3 0  9990
2 57184  97.5101 182.7415 0009644 264.2947  95.7187 15.18506520157277
SVYATOBOR 1 (RS60S)     
1 57187U 23091X   26124.19732807  .00008740  00000+0  34371-3 0  9994
2 57187  97.5113 187.7910 0008219 241.2606 118.7807 15.25873572157606
VIZARD-METEO (RS38S)    
1 57189U 23091Z   26124.15349933  .00015934  00000+0  47620-3 0  9990
2 57189  97.5110 192.8008 0006819 216.1907 143.8875 15.34648913157938
POLYTECH-UNIVERSE 3 (R*)
1 57191U 23091AB  26124.20063941  .00004384  00000+0  21414-3 0  9991
2 57191  97.5076 182.2793 0013952 283.4478  76.5201 15.18703426157277
UTMN 2 (RS27S)          
1 57203U 23091AP  26124.15338766  .00011694  00000+0  39279-3 0  9999
2 57203  97.5108 190.7970 0007271 225.7369 134.3276 15.30984908157807
KUZGTU 1 (RS47S)        
1 57217U 23091AV  26124.19575801  .00011483  00000+0  41138-3 0  9994
2 57217  97.5087 188.2571 0009784 247.0471 112.9736 15.28868571157659
SONATE-2                
1 59112U 24043Q   26123.92357859  .00036716  00000+0  53469-3 0  9995
2 59112  97.5490 271.7312 0006371   9.5195 350.6178 15.55627102121001
MESAT1                  
1 60209U 24125G   26124.12655170  .00046477  00000+0  59871-3 0  9993
2 60209  97.2346 340.7432 0010659  29.6047 330.5811 15.58836863102694
OOV-CUBE (TUBSAT-30)    
1 60240U 24128F   26124.20288889  .00002321  00000+0  18495-3 0  9996
2 60240  61.9967  18.9184 0049758 124.1135 236.4691 15.02553068 99502
COLIBRI-S (RS67S)       
1 61746U 24199M   26124.13498706  .00019563  00000+0  40269-3 0  9999
2 61746  97.3053 357.6360 0010706  84.3134 275.9336 15.45918570130600
HORS 3 (RS81S)          
1 61753U 24199U   26124.15727869  .00031586  00000+0  52325-3 0  9999
2 61753  97.3037 359.2092 0009100  88.8095 271.4200 15.52066048130727
HORS 4 (RS82S)          
1 61754U 24199V   26124.17219823  .00040696  00000+0  58722-3 0  9997
2 61754  97.2989   0.1747 0008226  85.4030 274.8164 15.55838962130790
HORIZON (RS59S)         
1 61757U 24199Y   26124.18135193  .00630629  17718-3  13312-2 0  9992
2 61757  97.2841   6.3472 0004570 139.2252 220.9369 15.98840799131197
ARCTICSAT 1 (RS74S)     
1 61762U 24199AD  26124.17790485  .00208679  00000+0  10438-2 0  9992
2 61762  97.2935   5.1528 0005083  91.6349 268.5501 15.81229646131116
SIT-2086                
1 61764U 24199AF  26124.14700484  .00021392  00000+0  37766-3 0  9990
2 61764  97.3009 359.8213 0008623  74.5323 285.6881 15.50352479127603
HYPERVIEW 1G (RS66S)    
1 61772U 24199AP  26124.16541795  .00089126  00000+0  84651-3 0  9993
2 61772  97.2957   1.9881 0008681  86.5120 273.7133 15.66553229127769
ALTAIR (RS65S)          
1 61779U 24199AW  26124.15501104  .00010833  00000+0  30818-3 0  9994
2 61779  97.3083 353.8108 0014818 103.3254 256.9643 15.36202285130351
ASRTU-1 (AO-123)        
1 61781U 24199AY  26124.17218894  .00007701  00000+0  22804-3 0  9996
2 61781  97.3055 353.2475 0015863 105.4935 254.8062 15.35031483127171
TUSUR GO (RS78S)        
1 61782U 24199AZ  26124.14459957  .01781651  27827-2  16212-2 0  9999
2 61782  97.2831   5.5569 0005183 193.1870 166.9281 16.13265003128003
SAMSAT-IONOSPHERE (RS7*)
1 61784U 24199BB  26124.19089530  .00041802  00000+0  64420-3 0  9994
2 61784  97.3011 359.1562 0011365  88.1643 272.0913 15.53993358130724
RTU MIREA 1 (RS51S)     
1 61785U 24199BC  26124.17200382  .00047047  00000+0  65722-3 0  9996
2 61785  97.2999 359.7718 0011208  86.0414 274.2122 15.56652907127612
TEVEL2-4                
1 63213U 25052D   26123.94962286  .00018895  00000+0  59276-3 0  9991
2 63213  97.3949  20.3112 0000436 215.4015 144.7198 15.33089088 63332
TEVEL2-5                
1 63214U 25052E   26123.96548257  .00018102  00000+0  57072-3 0  9995
2 63214  97.3945  20.2868 0000455 220.0820 140.0389 15.32939087 63336
TEVEL2-6                
1 63215U 25052F   26123.97674017  .00018616  00000+0  58752-3 0  9997
2 63215  97.3950  20.2831 0000560 234.5404 125.5786 15.32901134 63339
